NORAD_CAT_ID,OBJECT_NAME,OBJECT_TYPE,EPOCH,MEAN_MOTION,ECCENTRICITY,INCLINATION,RA_OF_ASC_NODE,ARG_OF_PERICENTER,MEAN_ANOMALY,BSTAR,MEAN_MOTION_DOT,MEAN_MOTION_DDOT,TLE_LINE0,TLE_LINE1,TLE_LINE2,SEMIMAJOR_AXIS,PERIOD,APOGEE,PERIGEE,DECAYED
51746.0,STARLINK-3502,PAYLOAD,2023-06-09 15:35:21,15.08836697,0.0001161,53.2163,136.441,86.856,273.2565,2.7714e-05,1.53e-06,0.0,0 STARLINK-3502,1 51746U 22016AJ  23160.64955877  .00000153  00000-0  27714-4 0  9991,2 51746  53.2163 136.4410 0001161  86.8560 273.2565 15.08836697 72121,6917.89,95.438,540.559,538.952,0.0
51746.0,STARLINK-3502,PAYLOAD,2023-06-10 04:18:26,15.08838302,0.0001189,53.2164,134.062,87.3408,272.772,2.3568e-05,8.7e-07,0.0,0 STARLINK-3502,1 51746U 22016AJ  23161.17947888  .00000087  00000-0  23568-4 0  9992,2 51746  53.2164 134.0620 0001189  87.3408 272.7720 15.08838302 73321,6917.886,95.438,540.573,538.928,0.0
51746.0,STARLINK-3502,PAYLOAD,2023-06-10 05:53:50,15.08840184,0.0001217,53.2164,133.7644,86.9793,273.1338,2.5805e-05,1.23e-06,0.0,0 STARLINK-3502,1 51746U 22016AJ  23161.24571771  .00000123  00000-0  25805-4 0  9991,2 51746  53.2164 133.7644 0001217  86.9793 273.1338 15.08840184 72215,6917.88,95.438,540.587,538.903,0.0
51746.0,STARLINK-3502,PAYLOAD,2023-06-10 21:47:41,15.08838809,0.0001276,53.2163,130.7909,86.4577,273.6561,2.2529e-05,7.1e-07,0.0,0 STARLINK-3502,1 51746U 22016AJ  23161.90811933  .00000071  00000-0  22529-4 0  9993,2 51746  53.2163 130.7909 0001276  86.4577 273.6561 15.08838809 72310,6917.884,95.438,540.632,538.866,0.0
51746.0,STARLINK-3502,PAYLOAD,2023-06-11 07:20:00,15.08842211,0.0001288,53.2164,129.007,86.107,274.0069,4.327e-05,4.01e-06,0.0,0 STARLINK-3502,1 51746U 22016AJ  23162.30555661  .00000401  00000-0  43270-4 0  9994,2 51746  53.2164 129.0070 0001288  86.1070 274.0069 15.08842211 73499,6917.874,95.437,540.63,538.848,0.0
51746.0,STARLINK-3502,PAYLOAD,2023-06-11 15:16:56,15.0883803,0.0001211,53.2161,127.5195,87.3224,272.7907,1.6389e-05,-2.7e-07,0.0,0 STARLINK-3502,1 51746U 22016AJ  23162.63676004 -.00000027  00000-0  16389-4 0  9991,2 51746  53.2161 127.5195 0001211  87.3224 272.7907 15.08838030 72429,6917.886,95.438,540.589,538.914,0.0
51746.0,STARLINK-3502,PAYLOAD,2023-06-12 04:00:01,15.08835702,0.0001211,53.2161,125.1407,86.6739,273.4392,3.4798e-05,2.66e-06,0.0,0 STARLINK-3502,1 51746U 22016AJ  23163.16668206  .00000266  00000-0  34798-4 0  9993,2 51746  53.2161 125.1407 0001211  86.6739 273.4392 15.08835702 73624,6917.894,95.438,540.596,538.921,0.0
51746.0,STARLINK-3502,PAYLOAD,2023-06-13 00:40:02,15.08837438,0.0001244,53.2161,121.2745,90.5328,269.5807,1.243e-05,-9e-07,0.0,0 STARLINK-3502,1 51746U 22016AJ  23164.02780290 -.00000090  00000-0  12430-4 0  9992,2 51746  53.2161 121.2745 0001244  90.5328 269.5807 15.08837438 72635,6917.888,95.438,540.614,538.893,0.0
51746.0,STARLINK-3502,PAYLOAD,2023-06-13 21:20:02,15.08837669,0.0001342,53.2175,117.4082,92.6259,267.4887,3.8687e-05,3.28e-06,0.0,0 STARLINK-3502,1 51746U 22016AJ  23164.88892285  .00000328  00000-0  38687-4 0  9999,2 51746  53.2175 117.4082 0001342  92.6259 267.4887 15.08837669 73885,6917.888,95.438,540.681,538.824,0.0
51746.0,STARLINK-3502,PAYLOAD,2023-06-14 06:52:21,15.08842268,0.0001367,53.2178,115.625,92.2332,267.8817,7.2655e-05,8.69e-06,0.0,0 STARLINK-3502,1 51746U 22016AJ  23165.28635906  .00000869  00000-0  72655-4 0  9992,2 51746  53.2178 115.6250 0001367  92.2332 267.8817 15.08842268 72821,6917.873,95.437,540.684,538.793,0.0
51746.0,STARLINK-3502,PAYLOAD,2023-06-14 21:10:50,15.08830557,0.0001262,53.2173,112.9484,90.5685,269.5452,-3.4156e-05,-8.31e-06,0.0,0 STARLINK-3502,1 51746U 22016AJ  23165.88253158 -.00000831  00000-0 -34156-4 0  9998,2 51746  53.2173 112.9484 0001262  90.5685 269.5452 15.08830557 72913,6917.909,95.438,540.647,538.901,0.0
51746.0,STARLINK-3502,PAYLOAD,2023-06-15 03:32:23,15.08832499,0.0001273,53.2178,111.7605,93.633,266.4808,-1.6748e-05,-5.54e-06,0.0,0 STARLINK-3502,1 51746U 22016AJ  23166.14749097 -.00000554  00000-0 -16748-4 0  9999,2 51746  53.2178 111.7605 0001273  93.6330 266.4808 15.08832499 74070,6917.903,95.438,540.649,538.888,0.0
51746.0,STARLINK-3502,PAYLOAD,2023-06-15 05:07:46,15.08832674,0.0001243,53.2177,111.463,91.8876,268.2259,-1.7335e-05,-5.64e-06,0.0,0 STARLINK-3502,1 51746U 22016AJ  23166.21373118 -.00000564  00000-0 -17335-4 0  9998,2 51746  53.2177 111.4630 0001243  91.8876 268.2259 15.08832674 72967,6917.903,95.438,540.628,538.908,0.0
51746.0,STARLINK-3502,PAYLOAD,2023-06-16 03:23:09,15.0884861,0.0001163,53.2171,107.2996,90.0804,270.0321,8.1256e-05,1.006e-05,0.0,0 STARLINK-3502,1 51746U 22016AJ  23167.14107943  .00001006  00000-0  81256-4 0  9995,2 51746  53.2171 107.2996 0001163  90.0804 270.0321 15.08848610 74221,6917.854,95.437,540.524,538.915,0.0
51746.0,STARLINK-3502,PAYLOAD,2023-06-16 12:55:28,15.0884838,0.0001158,53.2169,105.5156,94.7317,265.3808,4.3491e-05,4.05e-06,0.0,0 STARLINK-3502,1 51746U 22016AJ  23167.53851896  .00000405  00000-0  43491-4 0  9992,2 51746  53.2169 105.5156 0001158  94.7317 265.3808 15.08848380 73164,6917.855,95.437,540.521,538.919,0.0
51746.0,STARLINK-3502,PAYLOAD,2023-06-17 04:49:19,15.08846605,0.0001189,53.2168,102.5414,91.3933,268.7195,0.00015288,2.146e-05,0.0,0 STARLINK-3502,1 51746U 22016AJ  23168.20091639  .00002146  00000-0  15288-3 0  9994,2 51746  53.2168 102.5414 0001189  91.3933 268.7195 15.08846605 74387,6917.86,95.437,540.548,538.903,0.0
51746.0,STARLINK-3502,PAYLOAD,2023-06-17 12:46:16,15.08833281,0.0001392,53.2169,101.0543,80.3317,279.7833,-9.9005e-06,-4.45e-06,0.0,0 STARLINK-3502,1 51746U 22016AJ  23168.53213101 -.00000445  00000-0 -99005-5 0  9993,2 51746  53.2169 101.0543 0001392  80.3317 279.7833 15.08833281 73314,6917.901,95.438,540.729,538.803,0.0
51746.0,STARLINK-3502,PAYLOAD,2023-06-17 19:07:49,15.08833662,0.0001798,53.2172,99.8666,85.2383,274.8815,-0.0001183,-2.17e-05,0.0,0 STARLINK-3502,1 51746U 22016AJ  23168.79709773 -.00002170  00000-0 -11830-3 0  9991,2 51746  53.2172  99.8666 0001798  85.2383 274.8815 15.08833662 73358,6917.9,95.438,541.009,538.521,0.0
51746.0,STARLINK-3502,PAYLOAD,2023-06-18 12:37:03,15.08836389,0.0001206,53.2173,96.5948,85.2734,274.8396,-5.5167e-05,-1.166e-05,0.0,0 STARLINK-3502,1 51746U 22016AJ  23169.52573617 -.00001166  00000-0 -55167-4 0  9995,2 51746  53.2173  96.5948 0001206  85.2734 274.8396 15.08836389 73465,6917.891,95.438,540.591,538.922,0.0
51746.0,STARLINK-3502,PAYLOAD,2023-06-19 01:20:08,15.08843796,0.0001059,53.2166,94.2162,87.5755,272.5359,5.0335e-05,5.13e-06,0.0,0 STARLINK-3502,1 51746U 22016AJ  23170.05564827  .00000513  00000-0  50335-4 0  9993,2 51746  53.2166  94.2162 0001059  87.5755 272.5359 15.08843796 74661,6917.869,95.437,540.466,539.001,0.0
51746.0,STARLINK-3502,PAYLOAD,2023-06-19 04:30:53,15.08852022,0.0001136,53.2173,93.6205,96.0826,264.0295,4.0589e-05,3.58e-06,0.0,0 STARLINK-3502,1 51746U 22016AJ  23170.18812353  .00000358  00000-0  40589-4 0  9994,2 51746  53.2173  93.6205 0001136  96.0826 264.0295 15.08852022 74689,6917.844,95.437,540.495,538.923,0.0
51746.0,STARLINK-3502,PAYLOAD,2023-06-19 12:27:49,15.08851416,0.0001085,53.2166,92.1337,101.4978,258.6136,5.179e-05,5.37e-06,0.0,0 STARLINK-3502,1 51746U 22016AJ  23170.51932217  .00000537  00000-0  51790-4 0  9998,2 51746  53.2166  92.1337 0001085 101.4978 258.6136 15.08851416 73614,6917.845,95.437,540.461,538.96,0.0
51746.0,STARLINK-3502,PAYLOAD,2023-06-20 04:21:40,15.08843846,0.0001275,53.218,89.1574,107.3686,252.7446,0.00021643,3.159e-05,0.0,0 STARLINK-3502,1 51746U 22016AJ  23171.18172407  .00003159  00000-0  21643-3 0  9995,2 51746  53.2180  89.1574 0001275 107.3686 252.7446 15.08843846 74833,6917.869,95.437,540.616,538.852,0.0
51746.0,STARLINK-3502,PAYLOAD,2023-06-21 01:01:42,15.08843313,0.0001229,53.2174,85.2925,88.9698,271.1434,1.3112e-05,-7.9e-07,0.0,0 STARLINK-3502,1 51746U 22016AJ  23172.04285121 -.00000079  00000-0  13112-4 0  9991,2 51746  53.2174  85.2925 0001229  88.9698 271.1434 15.08843313 74964,6917.87,95.437,540.585,538.885,0.0
51746.0,STARLINK-3502,PAYLOAD,2023-06-21 18:30:57,15.08837641,0.0001224,53.2176,82.0238,89.7642,270.349,-5.0039e-05,-1.084e-05,0.0,0 STARLINK-3502,1 51746U 22016AJ  23172.77149668 -.00001084  00000-0 -50039-4 0  9993,2 51746  53.2176  82.0238 0001224  89.7642 270.3490 15.08837641 75074,6917.888,95.438,540.599,538.906,0.0
51746.0,STARLINK-3502,PAYLOAD,2023-06-22 02:27:52,15.08846372,0.0001142,53.2174,80.5367,84.6728,275.4395,-3.8282e-05,-8.97e-06,0.0,0 STARLINK-3502,1 51746U 22016AJ  23173.10268995 -.00000897  00000-0 -38282-4 0  9993,2 51746  53.2174  80.5367 0001142  84.6728 275.4395 15.08846372 75123,6917.861,95.437,540.516,538.936,0.0
51746.0,STARLINK-3502,PAYLOAD,2023-06-23 00:43:16,15.08838193,0.0001191,53.2183,76.3782,97.9029,262.2099,5.3878e-05,5.7e-06,0.0,0 STARLINK-3502,1 51746U 22016AJ  23174.03005552  .00000570  00000-0  53878-4 0  9998,2 51746  53.2183  76.3782 0001191  97.9029 262.2099 15.08838193 75264,6917.886,95.438,540.575,538.927,0.0
51746.0,STARLINK-3502,PAYLOAD,2023-06-23 03:54:02,15.08845635,0.0001095,53.2172,75.779,82.7155,277.3961,0.00010813,1.434e-05,0.0,0 STARLINK-3502,1 51746U 22016AJ  23174.16252914  .00001434  00000-0  10813-3 0  9999,2 51746  53.2172  75.7790 0001095  82.7155 277.3961 15.08845635 75285,6917.863,95.437,540.486,538.971,0.0
51746.0,STARLINK-3502,PAYLOAD,2023-06-24 02:09:26,15.08846446,0.0001189,53.2183,71.614,89.9159,270.1969,0.00011281,1.508e-05,0.0,0 STARLINK-3502,1 51746U 22016AJ  23175.08989095  .00001508  00000-0  11281-3 0  9990,2 51746  53.2183  71.6140 0001189  89.9159 270.1969 15.08846446 75424,6917.861,95.437,540.548,538.903,0.0
51746.0,STARLINK-3502,PAYLOAD,2023-06-24 16:27:55,15.08839158,0.0001245,53.2185,68.9436,86.4854,273.6281,8.9164e-05,1.131e-05,0.0,0 STARLINK-3502,1 51746U 22016AJ  23175.68605749  .00001131  00000-0  89164-4 0  9995,2 51746  53.2185  68.9436 0001245  86.4854 273.6281 15.08839158 75517,6917.883,95.438,540.609,538.887,0.0
